{"type": "FeatureCollection", "features": [ {"type": "Feature", "properties": {"norad_id": 60453, "name": "LEGION 4", "group": "resource", "lat": 4.757284667406396, "lon": 53.97127138184909, "alt_km": 514.8614372265974, "timestamp": "2025-12-11T08:58:26.772206+00:00", "meta": {"OBJECT_NAME": "LEGION 4", "OBJECT_ID": "2024-146B", "EPOCH": "2025-12-11T04:11:58.227072", "MEAN_MOTION": 15.15796669, "ECCENTRICITY": 0.000962, "INCLINATION": 45.0386, "RA_OF_ASC_NODE": 50.267, "ARG_OF_PERICENTER": 303.0262, "MEAN_ANOMALY": 56.9693, "EPHEMERIS_TYPE": 0, "CLASSIFICATION_TYPE": "U", "NORAD_CAT_ID": 60453, "ELEMENT_SET_NO": 999, "REV_AT_EPOCH": 7234, "BSTAR": 0.00041033, "MEAN_MOTION_DOT": 7.72e-05, "MEAN_MOTION_DDOT": 0}, "tle": {"line1": "1 60453U 24146B   25345.17497948  .00007720  00000+0  41033-3 0  9992", "line2": "2 60453  45.0386  50.2670 0009620 303.0262  56.9693 15.15796669 72348"}}, "geometry": {"type": "Point", "coordinates": [53.97127138184909, 4.757284667406396]}}, {"type": "Feature", "properties": {"norad_id": 60989, "name": "SENTINEL-2C", "group": "resource", "lat": 7.481207379168647, "lon": -120.9894698592601, "alt_km": 790.6915545927504, "timestamp": "2025-12-11T08:58:26.772217+00:00", "meta": {"OBJECT_NAME": "SENTINEL-2C", "OBJECT_ID": "2024-157A", "EPOCH": "2025-12-11T04:48:53.226720", "MEAN_MOTION": 14.3081658, "ECCENTRICITY": 0.0001195, "INCLINATION": 98.5683, "RA_OF_ASC_NODE": 57.7053, "ARG_OF_PERICENTER": 97.5952, "MEAN_ANOMALY": 262.5366, "EPHEMERIS_TYPE": 0, "CLASSIFICATION_TYPE": "U", "NORAD_CAT_ID": 60989, "ELEMENT_SET_NO": 999, "REV_AT_EPOCH": 6610, "BSTAR": 0.00010289, "MEAN_MOTION_DOT": 2.26e-06, "MEAN_MOTION_DDOT": 0}, "tle": {"line1": "1 60989U 24157A   25345.20061605  .00000226  00000+0  10289-3 0  9992", "line2": "2 60989  98.5683  57.7053 0001195  97.5952 262.5366 14.30816580 66102"}}, "geometry": {"type": "Point", "coordinates": [-120.9894698592601, 7.481207379168647]}}, {"type": "Feature", "properties": {"norad_id": 61735, "name": "IONOSFERA-M 1", "group": "resource", "lat": 60.284142338681676, "lon": 50.8707137574068, "alt_km": 810.3674565436377, "timestamp": "2025-12-11T08:58:26.772227+00:00", "meta": {"OBJECT_NAME": "IONOSFERA-M 1", "OBJECT_ID": "2024-199A", "EPOCH": "2025-12-11T05:02:36.907296", "MEAN_MOTION": 14.2271348, "ECCENTRICITY": 0.0001034, "INCLINATION": 98.7411, "RA_OF_ASC_NODE": 215.0701, "ARG_OF_PERICENTER": 24.1301, "MEAN_ANOMALY": 335.9926, "EPHEMERIS_TYPE": 0, "CLASSIFICATION_TYPE": "U", "NORAD_CAT_ID": 61735, "ELEMENT_SET_NO": 999, "REV_AT_EPOCH": 10097, "BSTAR": 6.6116e-05, "MEAN_MOTION_DOT": 1.04e-06, "MEAN_MOTION_DDOT": 0}, "tle": {"line1": "1 61735U 24199A   25345.21014939  .00000104  00000+0  66116-4 0  9993", "line2": "2 61735  98.7411 215.0701 0001034  24.1301 335.9926 14.22713480100975"}}, "geometry": {"type": "Point", "coordinates": [50.8707137574068, 60.284142338681676]}}, {"type": "Feature", "properties": {"norad_id": 61736, "name": "IONOSFERA-M 2", "group": "resource", "lat": -57.87635158140282, "lon": -130.67215346712928, "alt_km": 824.3877287311798, "timestamp": "2025-12-11T08:58:26.772238+00:00", "meta": {"OBJECT_NAME": "IONOSFERA-M 2", "OBJECT_ID": "2024-199B", "EPOCH": "2025-12-11T04:11:14.193312", "MEAN_MOTION": 14.22715671, "ECCENTRICITY": 0.0001605, "INCLINATION": 98.7403, "RA_OF_ASC_NODE": 214.9472, "ARG_OF_PERICENTER": 112.7356, "MEAN_ANOMALY": 247.3992, "EPHEMERIS_TYPE": 0, "CLASSIFICATION_TYPE": "U", "NORAD_CAT_ID": 61736, "ELEMENT_SET_NO": 999, "REV_AT_EPOCH": 10409, "BSTAR": 6.9145e-05, "MEAN_MOTION_DOT": 1.11e-06, "MEAN_MOTION_DDOT": 0}, "tle": {"line1": "1 61736U 24199B   25345.17446983  .00000111  00000+0  69145-4 0  9990", "line2": "2 61736  98.7403 214.9472 0001605 112.7356 247.3992 14.22715671104098"}}, "geometry": {"type": "Point", "coordinates": [-130.67215346712928, -57.87635158140282]}}, {"type": "Feature", "properties": {"norad_id": 63772, "name": "BIOMASS", "group": "resource", "lat": -81.25911628345875, "lon": -122.25859878197602, "alt_km": 677.0688798007832, "timestamp": "2025-12-11T08:58:26.772248+00:00", "meta": {"OBJECT_NAME": "BIOMASS", "OBJECT_ID": "2025-090A", "EPOCH": "2025-12-11T02:49:22.864800", "MEAN_MOTION": 14.67541407, "ECCENTRICITY": 0.000118, "INCLINATION": 98.07, "RA_OF_ASC_NODE": 170.1509, "ARG_OF_PERICENTER": 77.1221, "MEAN_ANOMALY": 283.0116, "EPHEMERIS_TYPE": 0, "CLASSIFICATION_TYPE": "U", "NORAD_CAT_ID": 63772, "ELEMENT_SET_NO": 999, "REV_AT_EPOCH": 3310, "BSTAR": 0.0003879, "MEAN_MOTION_DOT": 2.152e-05, "MEAN_MOTION_DDOT": 0}, "tle": {"line1": "1 63772U 25090A   25345.11762575  .00002152  00000+0  38790-3 0  9993", "line2": "2 63772  98.0700 170.1509 0001180  77.1221 283.0116 14.67541407 33101"}}, "geometry": {"type": "Point", "coordinates": [-122.25859878197602, -81.25911628345875]}}, {"type": "Feature", "properties": {"norad_id": 64694, "name": "GOSAT-GW (IBUKI GW)", "group": "resource", "lat": 56.300782646049605, "lon": 113.15157829758412, "alt_km": 662.6883234572297, "timestamp": "2025-12-11T08:58:26.772258+00:00", "meta": {"OBJECT_NAME": "GOSAT-GW (IBUKI GW)", "OBJECT_ID": "2025-141A", "EPOCH": "2025-12-10T22:35:55.172256", "MEAN_MOTION": 14.67565098, "ECCENTRICITY": 0.00014737, "INCLINATION": 98.0423, "RA_OF_ASC_NODE": 280.4871, "ARG_OF_PERICENTER": 82.5125, "MEAN_ANOMALY": 277.6247, "EPHEMERIS_TYPE": 0, "CLASSIFICATION_TYPE": "U", "NORAD_CAT_ID": 64694, "ELEMENT_SET_NO": 999, "REV_AT_EPOCH": 2423, "BSTAR": 0.0002731805, "MEAN_MOTION_DOT": 1.503e-05, "MEAN_MOTION_DDOT": 0}, "tle": {"line1": "1 64694U 25141A   25344.94161079  .00001503  00000+0  27318-3 0  9999", "line2": "2 64694  98.0423 280.4871 0001473  82.5125 277.6247 14.67565098 24232"}}, "geometry": {"type": "Point", "coordinates": [113.15157829758412, 56.300782646049605]}}, {"type": "Feature", "properties": {"norad_id": 64876, "name": "IONOSFERA-M 3", "group": "resource", "lat": -8.408755576839388, "lon": -51.44283992284647, "alt_km": 823.8882056300381, "timestamp": "2025-12-11T08:58:26.772269+00:00", "meta": {"OBJECT_NAME": "IONOSFERA-M 3", "OBJECT_ID": "2025-155A", "EPOCH": "2025-12-11T03:56:45.059424", "MEAN_MOTION": 14.21440368, "ECCENTRICITY": 0.0002257, "INCLINATION": 98.578, "RA_OF_ASC_NODE": 307.0751, "ARG_OF_PERICENTER": 62.5758, "MEAN_ANOMALY": 297.5649, "EPHEMERIS_TYPE": 0, "CLASSIFICATION_TYPE": "U", "NORAD_CAT_ID": 64876, "ELEMENT_SET_NO": 999, "REV_AT_EPOCH": 1969, "BSTAR": 8.7529e-05, "MEAN_MOTION_DOT": 1.49e-06, "MEAN_MOTION_DDOT": 0}, "tle": {"line1": "1 64876U 25155A   25345.16441041  .00000149  00000+0  87529-4 0  9997", "line2": "2 64876  98.5780 307.0751 0002257  62.5758 297.5649 14.21440368 19692"}}, "geometry": {"type": "Point", "coordinates": [-51.44283992284647, -8.408755576839388]}}, {"type": "Feature", "properties": {"norad_id": 64877, "name": "IONOSFERA-M 4", "group": "resource", "lat": 7.493214473057775, "lon": 128.33585382942027, "alt_km": 822.7302999523017, "timestamp": "2025-12-11T08:58:26.772279+00:00", "meta": {"OBJECT_NAME": "IONOSFERA-M 4", "OBJECT_ID": "2025-155B", "EPOCH": "2025-12-11T04:47:14.868096", "MEAN_MOTION": 14.21441487, "ECCENTRICITY": 0.0001618, "INCLINATION": 98.5779, "RA_OF_ASC_NODE": 307.0288, "ARG_OF_PERICENTER": 65.0323, "MEAN_ANOMALY": 295.1023, "EPHEMERIS_TYPE": 0, "CLASSIFICATION_TYPE": "U", "NORAD_CAT_ID": 64877, "ELEMENT_SET_NO": 999, "REV_AT_EPOCH": 1969, "BSTAR": 9.0432e-05, "MEAN_MOTION_DOT": 1.55e-06, "MEAN_MOTION_DDOT": 0}, "tle": {"line1": "1 64877U 25155B   25345.19947764  .00000155  00000+0  90432-4 0  9998", "line2": "2 64877  98.5779 307.0288 0001618  65.0323 295.1023 14.21441487 19695"}}, "geometry": {"type": "Point", "coordinates": [128.33585382942027, 7.493214473057775]}}, {"type": "Feature", "properties": {"norad_id": 64899, "name": "MICROCARB", "group": "resource", "lat": 75.7625696376753, "lon": 27.068446172703123, "alt_km": 643.3573257685903, "timestamp": "2025-12-11T08:58:26.772289+00:00", "meta": {"OBJECT_NAME": "MICROCARB", "OBJECT_ID": "2025-156A", "EPOCH": "2025-12-11T05:21:25.661088", "MEAN_MOTION": 14.72052934, "ECCENTRICITY": 0.0017044, "INCLINATION": 98.0027, "RA_OF_ASC_NODE": 60.593, "ARG_OF_PERICENTER": 149.3859, "MEAN_ANOMALY": 210.8346, "EPHEMERIS_TYPE": 0, "CLASSIFICATION_TYPE": "U", "NORAD_CAT_ID": 64899, "ELEMENT_SET_NO": 999, "REV_AT_EPOCH": 2031, "BSTAR": 0.0001848, "MEAN_MOTION_DOT": 1.114e-05, "MEAN_MOTION_DDOT": 0}, "tle": {"line1": "1 64899U 25156A   25345.22321367  .00001114  00000+0  18480-3 0  9990", "line2": "2 64899  98.0027  60.5930 0017044 149.3859 210.8346 14.72052934 20319"}}, "geometry": {"type": "Point", "coordinates": [27.068446172703123, 75.7625696376753]}}, {"type": "Feature", "properties": {"norad_id": 64900, "name": "CO3D 3", "group": "resource", "lat": -62.7348965591414, "lon": -132.9154031051968, "alt_km": 513.14163668734, "timestamp": "2025-12-11T08:58:26.772300+00:00", "meta": {"OBJECT_NAME": "CO3D 3", "OBJECT_ID": "2025-156B", "EPOCH": "2025-12-11T04:44:46.317120", "MEAN_MOTION": 15.20218213, "ECCENTRICITY": 0.0001367, "INCLINATION": 97.4338, "RA_OF_ASC_NODE": 61.5868, "ARG_OF_PERICENTER": 101.3203, "MEAN_ANOMALY": 258.8185, "EPHEMERIS_TYPE": 0, "CLASSIFICATION_TYPE": "U", "NORAD_CAT_ID": 64900, "ELEMENT_SET_NO": 999, "REV_AT_EPOCH": 2097, "BSTAR": 0.00044425, "MEAN_MOTION_DOT": 9.566e-05, "MEAN_MOTION_DDOT": 0}, "tle": {"line1": "1 64900U 25156B   25345.19775830  .00009566  00000+0  44425-3 0  9994", "line2": "2 64900  97.4338  61.5868 0001367 101.3203 258.8185 15.20218213 20976"}}, "geometry": {"type": "Point", "coordinates": [-132.9154031051968, -62.7348965591414]}}]}